[{"OBJECT_ID":"2009-064A","OBJECT_NAME":"INTELSAT 14","NORAD_CAT_ID":"36097","OBJECT_TYPE":"PAYLOAD","PERIOD":"1436.079","INCLINATION":"0.0145","APOGEE":"35795.616","PERIGEE":"35776.887","ECCENTRICITY":"0.0002221","MEAN_MOTION":"1.00273015","TLE_LINE1":"1 36097U 09064A   16237.20026821 -.00000297 +00000-0 +00000-0 0  9993","TLE_LINE2":"2 36097 000.0145 113.7955 0002221 052.1829 194.0243 01.00273015024796","LAUNCH_DATE":"2009-11-23","LAUNCH_SITE":"AIR FORCE EASTERN TEST RANGE","OWNER":"INTERNATIONAL TELECOMMUNICATIONS SATELLITE ORGANIZATION (INTELSAT)","ORBIT_TYPE":"Geosynchronous","OPERATIONAL_STATUS":"Operational","satInfo":{"lng":-45.104188009415445,"lat":1.645352426225299,"elevation":-6.964845098741398,"azimuth":0.10418800941542301,"range":42453.21418119148,"height":35779.1677177454,"velocity":3.0752242248419135},"x":-184,"y":-183,"dx":2.1705541258340593,"dy":-2.1784624898949465,"maxAlt":256,"minAlt":256},{"OBJECT_ID":"2009-065A","OBJECT_NAME":"EUTE 36B (EUTE W7)","NORAD_CAT_ID":"36101","OBJECT_TYPE":"PAYLOAD","PERIOD":"1436.113","INCLINATION":"0.0672","APOGEE":"35803.472","PERIGEE":"35770.381","ECCENTRICITY":"0.0003924","MEAN_MOTION":"1.00270607","TLE_LINE1":"1 36101U 09065A   16238.79146571  .00000128  00000-0  00000+0 0  9991","TLE_LINE2":"2 36101   0.0672 356.9893 0003924 166.8562 131.4806  1.00270607 24881","LAUNCH_DATE":"2009-11-24","LAUNCH_SITE":"TYURATAM MISSILE AND SPACE COMPLEX","OWNER":"EUROPEAN TELECOMMUNICATIONS SATELLITE ORGANIZATION (EUTELSAT)","ORBIT_TYPE":"Geosynchronous","OPERATIONAL_STATUS":"Operational","satInfo":{"lng":92.99918318659216,"lat":-0.16890491722448095,"elevation":-8.742446201726926,"azimuth":222.0008168134078,"range":42641.68943337254,"height":35768.30537058365,"velocity":3.0752798692811676},"x":256,"y":12,"dx":-0.1609039312942159,"dy":3.071067599272289,"maxAlt":256,"minAlt":256},{"OBJECT_ID":"2009-067A","OBJECT_NAME":"INTELSAT 15","NORAD_CAT_ID":"36106","OBJECT_TYPE":"PAYLOAD","PERIOD":"1436.105","INCLINATION":"0.06","APOGEE":"35795.803","PERIGEE":"35777.731","ECCENTRICITY":"0.0002143","MEAN_MOTION":"1.00271177","TLE_LINE1":"1 36106U 09067A   16238.86297331 -.00000213 +00000-0 +00000-0 0  9994","TLE_LINE2":"2 36106 000.0600 285.3481 0002143 236.4673 208.5442 01.00271177005383","LAUNCH_DATE":"2009-11-30","LAUNCH_SITE":"TYURATAM MISSILE AND SPACE COMPLEX","OWNER":"INTERNATIONAL TELECOMMUNICATIONS SATELLITE ORGANIZATION (INTELSAT)","ORBIT_TYPE":"Geosynchronous","OPERATIONAL_STATUS":"Operational","satInfo":{"lng":65.42081618259301,"lat":-0.48557867882836,"elevation":-9.048719938300989,"azimuth":249.5791838174069,"range":42690.15882655219,"height":35782.25378547824,"velocity":3.0749479510603708},"x":233,"y":-109,"dx":1.2790259205750176,"dy":2.79631857917291,"maxAlt":256,"minAlt":256},{"OBJECT_ID":"2010-001A","OBJECT_NAME":"BEIDOU G1","NORAD_CAT_ID":"36287","OBJECT_TYPE":"PAYLOAD","PERIOD":"1436.090","INCLINATION":"1.5246","APOGEE":"35805.425","PERIGEE":"35767.502","ECCENTRICITY":"0.0004497","MEAN_MOTION":"1.0027226","TLE_LINE1":"1 36287U 10001A   16238.85035899 -.00000310 +00000-0 +10000-3 0  9994","TLE_LINE2":"2 36287 001.5246 002.0197 0004497 212.4764 206.2152 01.00272260024256","LAUNCH_DATE":"2010-01-16","LAUNCH_SITE":"Xichang Space Center, China","OWNER":"PEOPLES REPUBLIC OF CHINA","ORBIT_TYPE":"Geosynchronous","OPERATIONAL_STATUS":"Operational","satInfo":{"lng":122.09987824884168,"lat":-0.7700128611555698,"elevation":-9.330029327543883,"azimuth":192.9001217511583,"range":42701.879650904804,"height":35762.63615922093,"velocity":3.0757200039515413},"x":217,"y":135,"dx":-1.6344277044910205,"dy":2.6055133124779624,"maxAlt":256,"minAlt":256},{"OBJECT_ID":"2010-008A","OBJECT_NAME":"GOES 15","NORAD_CAT_ID":"36411","OBJECT_TYPE":"PAYLOAD","PERIOD":"1436.220","INCLINATION":"0.3923","APOGEE":"35801.398","PERIGEE":"35776.637","ECCENTRICITY":"0.0002936","MEAN_MOTION":"1.00263149","TLE_LINE1":"1 36411U 10008A   16238.44723602 +.00000063 +00000-0 +00000-0 0  9991","TLE_LINE2":"2 36411 000.3923 272.5942 0002936 257.9849 189.4200 01.00263149023767","LAUNCH_DATE":"2010-03-04","LAUNCH_SITE":"AIR FORCE EASTERN TEST RANGE","OWNER":"UNITED STATES OF AMERICA","ORBIT_TYPE":"Geosynchronous","OPERATIONAL_STATUS":"Operational","satInfo":{"lng":-122.023940499826,"lat":0.2473775238961838,"elevation":-8.33354171556873,"azimuth":77.02394049982595,"range":42607.16701657935,"height":35779.53822667076,"velocity":3.0747085179489386},"x":-220,"y":135,"dx":-1.6304366528165326,"dy":-2.606819669923522,"maxAlt":256,"minAlt":256},{"OBJECT_ID":"2010-021A","OBJECT_NAME":"ASTRA 3B","NORAD_CAT_ID":"36581","OBJECT_TYPE":"PAYLOAD","PERIOD":"1436.101","INCLINATION":"0.0561","APOGEE":"35798.900","PERIGEE":"35774.461","ECCENTRICITY":"0.0002898","MEAN_MOTION":"1.00271484","TLE_LINE1":"1 36581U 10021A   16239.07378310  .00000109  00000-0  00000+0 0  9996","TLE_LINE2":"2 36581   0.0561 338.6185 0002898 188.1095 218.0512  1.00271484 22730","LAUNCH_DATE":"2010-05-21","LAUNCH_SITE":"FRENCH GUIANA","OWNER":"SOCIÉTÉ EUROPÉENNE DES SATELLITES","ORBIT_TYPE":"Geosynchronous","OPERATIONAL_STATUS":"Operational","satInfo":{"lng":51.709568258132556,"lat":-0.9085360033142039,"elevation":-9.466556253752618,"azimuth":263.2904317418674,"range":42709.55970914812,"height":35755.08577093142,"velocity":3.076100319891302},"x":201,"y":-161,"dx":1.9060993106675252,"dy":2.414369192130349,"maxAlt":256,"minAlt":256},{"OBJECT_ID":"2010-024A","OBJECT_NAME":"BEIDOU G3","NORAD_CAT_ID":"36590","OBJECT_TYPE":"PAYLOAD","PERIOD":"1435.990","INCLINATION":"1.3275","APOGEE":"35804.394","PERIGEE":"35764.618","ECCENTRICITY":"0.0004717","MEAN_MOTION":"1.00279242","TLE_LINE1":"1 36590U 10024A   16238.98972933 -.00000382  00000-0  00000+0 0  9993","TLE_LINE2":"2 36590   1.3275  22.4265 0004717 298.5754 120.3720  1.00279242 22863","LAUNCH_DATE":"2010-06-02","LAUNCH_SITE":"Xichang Space Center, China","OWNER":"PEOPLES REPUBLIC OF CHINA","ORBIT_TYPE":"Geosynchronous","OPERATIONAL_STATUS":"Operational","satInfo":{"lng":53.49189476582962,"lat":-1.795807822595228,"elevation":-10.320274988187554,"azimuth":261.50810523417033,"range":42856.291608822,"height":35805.510149067726,"velocity":3.0739120667979094},"x":206,"y":-155,"dx":1.828782476555703,"dy":2.470726623454846,"maxAlt":256,"minAlt":256},{"OBJECT_ID":"2010-025A","OBJECT_NAME":"BADR-5 (ARABSAT 5B)","NORAD_CAT_ID":"36592","OBJECT_TYPE":"PAYLOAD","PERIOD":"1436.104","INCLINATION":"0.0115","APOGEE":"35806.764","PERIGEE":"35766.707","ECCENTRICITY":"0.000475","MEAN_MOTION":"1.00271288","TLE_LINE1":"1 36592U 10025A   16239.11923657  .00000116  00000-0  00000+0 0  9995","TLE_LINE2":"2 36592   0.0115 149.6180 0004750  21.0506 233.0154  1.00271288 22981","LAUNCH_DATE":"2010-06-03","LAUNCH_SITE":"TYURATAM MISSILE AND SPACE COMPLEX","OWNER":"ARAB SATELLITE COMMUNICATIONS ORGANIZATION","ORBIT_TYPE":"Geosynchronous","OPERATIONAL_STATUS":"Operational","satInfo":{"lng":62.4022356442186,"lat":1.1359037227698365,"elevation":-7.470056725994773,"azimuth":252.5977643557814,"range":42480.59131526471,"height":35750.18941134979,"velocity":3.0763863730058643},"x":227,"y":-121,"dx":1.4251712293845789,"dy":2.72636022618997,"maxAlt":256,"minAlt":256},{"OBJECT_ID":"2010-032A","OBJECT_NAME":"COMS 1","NORAD_CAT_ID":"36744","OBJECT_TYPE":"PAYLOAD","PERIOD":"1436.081","INCLINATION":"0.0236","APOGEE":"35790.451","PERIGEE":"35782.144","ECCENTRICITY":"9.85e-05","MEAN_MOTION":"1.00272852","TLE_LINE1":"1 36744U 10032A   16239.43002204 -.00000373  00000-0  00000+0 0  9999","TLE_LINE2":"2 36744   0.0236  99.2345 0000985 109.8254  49.0291  1.00272852 22736","LAUNCH_DATE":"2010-06-26","LAUNCH_SITE":"FRENCH GUIANA","OWNER":"SOUTH KOREA","ORBIT_TYPE":"Geosynchronous","OPERATIONAL_STATUS":"Operational","satInfo":{"lng":111.97764354462319,"lat":-1.5065755423845406,"elevation":-10.03913413537746,"azimuth":203.02235645537678,"range":42823.63403850023,"height":35804.388022948624,"velocity":3.074088266974626},"x":238,"y":95,"dx":-1.1504614981114518,"dy":2.8506941285438208,"maxAlt":256,"minAlt":256},{"OBJECT_ID":"2010-032B","OBJECT_NAME":"ARABSAT 5A","NORAD_CAT_ID":"36745","OBJECT_TYPE":"PAYLOAD","PERIOD":"1436.021","INCLINATION":"0.0573","APOGEE":"35798.667","PERIGEE":"35771.565","ECCENTRICITY":"0.0003214","MEAN_MOTION":"1.00277066","TLE_LINE1":"1 36745U 10032B   16239.11160700  .00000126  00000-0  00000+0 0  9996","TLE_LINE2":"2 36745   0.0573 343.5122 0003214 173.7051 248.2705  1.00277066 22715","LAUNCH_DATE":"2010-06-26","LAUNCH_SITE":"FRENCH GUIANA","OWNER":"ARAB SATELLITE COMMUNICATIONS ORGANIZATION","ORBIT_TYPE":"Geosynchronous","OPERATIONAL_STATUS":"Operational","satInfo":{"lng":83.20746898350438,"lat":-0.5951235661645379,"elevation":-9.159549998173201,"azimuth":231.79253101649562,"range":42682.48276821378,"height":35762.36774134679,"velocity":3.0755334981353593},"x":254,"y":-32,"dx":0.36375726654048923,"dy":3.0539461274213258,"maxAlt":256,"minAlt":256},{"OBJECT_ID":"2010-032D","OBJECT_NAME":"ARIANE 5 DEB (SYLDA)","NORAD_CAT_ID":"36747","OBJECT_TYPE":"DEBRIS","PERIOD":"437.319","INCLINATION":"1.9652","APOGEE":"25139.469","PERIGEE":"274.306","ECCENTRICITY":"0.6514313","MEAN_MOTION":"3.29278761","TLE_LINE1":"1 36747U 10032D   16238.73243782  .00013347  00000-0  33319-2 0  9998","TLE_LINE2":"2 36747   1.9652 354.3012 6514313 336.3550   3.8969  3.29278761 61768","LAUNCH_DATE":"2010-06-26","LAUNCH_SITE":"FRENCH GUIANA","OWNER":"FRANCE","ORBIT_TYPE":"Highly Elliptical Orbit","OPERATIONAL_STATUS":"N/A, space debris","satInfo":{"lng":-75.49806944715671,"lat":-0.28682241705726413,"elevation":-13.257976698895297,"azimuth":30.498069447156713,"range":28320.482145683658,"height":21187.87382540951,"velocity":2.5791907019335003},"x":-149,"y":-40,"dx":0.6458619144758372,"dy":-2.497015631582996,"maxAlt":180,"minAlt":1}]